{"type": "FeatureCollection", "features": [ {"type": "Feature", "properties": {"norad_id": 28659, "name": "DIRECTV 8", "group": "intelsat", "lat": 0.007761369371401507, "lon": 170.21725395946223, "alt_km": 35787.03336223353, "timestamp": "2025-12-11T13:55:01.835647+00:00", "meta": {"OBJECT_NAME": "DIRECTV 8", "OBJECT_ID": "2005-019A", "EPOCH": "2025-12-11T00:57:40.452192", "MEAN_MOTION": 1.00272438, "ECCENTRICITY": 0.00031212, "INCLINATION": 0.012, "RA_OF_ASC_NODE": 43.9684, "ARG_OF_PERICENTER": 221.3482, "MEAN_ANOMALY": 70.068, "EPHEMERIS_TYPE": 0, "CLASSIFICATION_TYPE": "U", "NORAD_CAT_ID": 28659, "ELEMENT_SET_NO": 999, "REV_AT_EPOCH": 7518, "BSTAR": 0, "MEAN_MOTION_DOT": 6e-08, "MEAN_MOTION_DDOT": 0}, "tle": {"line1": "1 28659U 05019A   25345.04005153  .00000006  00000+0  00000+0 0  9996", "line2": "2 28659   0.0120  43.9684 0003121 221.3482  70.0680  1.00272438 75187"}}, "geometry": {"type": "Point", "coordinates": [170.21725395946223, 0.007761369371401507]}}, {"type": "Feature", "properties": {"norad_id": 28702, "name": "GALAXY 28 (G-28)", "group": "intelsat", "lat": 2.4446390357459316, "lon": -159.39265327430178, "alt_km": 35780.89910543192, "timestamp": "2025-12-11T13:55:01.835669+00:00", "meta": {"OBJECT_NAME": "GALAXY 28 (G-28)", "OBJECT_ID": "2005-022A", "EPOCH": "2025-12-11T04:52:38.653824", "MEAN_MOTION": 1.00270733, "ECCENTRICITY": 0.00027163, "INCLINATION": 2.8148, "RA_OF_ASC_NODE": 81.2995, "ARG_OF_PERICENTER": 182.5228, "MEAN_ANOMALY": 160.8173, "EPHEMERIS_TYPE": 0, "CLASSIFICATION_TYPE": "U", "NORAD_CAT_ID": 28702, "ELEMENT_SET_NO": 999, "REV_AT_EPOCH": 5008, "BSTAR": 0, "MEAN_MOTION_DOT": -1.81e-06, "MEAN_MOTION_DDOT": 0}, "tle": {"line1": "1 28702U 05022A   25345.20322516 -.00000181  00000+0  00000+0 0  9997", "line2": "2 28702   2.8148  81.2995 0002716 182.5228 160.8173  1.00270733 50084"}}, "geometry": {"type": "Point", "coordinates": [-159.39265327430178, 2.4446390357459316]}}, {"type": "Feature", "properties": {"norad_id": 29236, "name": "GALAXY 16 (G-16)", "group": "intelsat", "lat": 0.014352943041742094, "lon": -169.74381823409666, "alt_km": 35781.45296117076, "timestamp": "2025-12-11T13:55:01.835688+00:00", "meta": {"OBJECT_NAME": "GALAXY 16 (G-16)", "OBJECT_ID": "2006-023A", "EPOCH": "2025-12-11T05:00:38.584224", "MEAN_MOTION": 1.00272313, "ECCENTRICITY": 0.00026932, "INCLINATION": 0.0366, "RA_OF_ASC_NODE": 150.4834, "ARG_OF_PERICENTER": 106.5735, "MEAN_ANOMALY": 159.2686, "EPHEMERIS_TYPE": 0, "CLASSIFICATION_TYPE": "U", "NORAD_CAT_ID": 29236, "ELEMENT_SET_NO": 999, "REV_AT_EPOCH": 7108, "BSTAR": 0, "MEAN_MOTION_DOT": -1.21e-06, "MEAN_MOTION_DDOT": 0}, "tle": {"line1": "1 29236U 06023A   25345.20877991 -.00000121  00000+0  00000+0 0  9998", "line2": "2 29236   0.0366 150.4834 0002693 106.5735 159.2686  1.00272313 71083"}}, "geometry": {"type": "Point", "coordinates": [-169.74381823409666, 0.014352943041742094]}}, {"type": "Feature", "properties": {"norad_id": 29494, "name": "DIRECTV 9S", "group": "intelsat", "lat": 1.864688688109335, "lon": -171.94386015875529, "alt_km": 35782.41313796353, "timestamp": "2025-12-11T13:55:01.835700+00:00", "meta": {"OBJECT_NAME": "DIRECTV 9S", "OBJECT_ID": "2006-043A", "EPOCH": "2025-12-11T05:00:38.584224", "MEAN_MOTION": 1.00271766, "ECCENTRICITY": 0.00030737, "INCLINATION": 1.9365, "RA_OF_ASC_NODE": 83.2249, "ARG_OF_PERICENTER": 179.5337, "MEAN_ANOMALY": 151.3624, "EPHEMERIS_TYPE": 0, "CLASSIFICATION_TYPE": "U", "NORAD_CAT_ID": 29494, "ELEMENT_SET_NO": 999, "REV_AT_EPOCH": 4949, "BSTAR": 0, "MEAN_MOTION_DOT": -1.07e-06, "MEAN_MOTION_DDOT": 0}, "tle": {"line1": "1 29494U 06043A   25345.20877991 -.00000107  00000+0  00000+0 0  9990", "line2": "2 29494   1.9365  83.2249 0003073 179.5337 151.3624  1.00271766 49498"}}, "geometry": {"type": "Point", "coordinates": [-171.94386015875529, 1.864688688109335]}}, {"type": "Feature", "properties": {"norad_id": 31307, "name": "GALAXY 17 (G-17)", "group": "intelsat", "lat": 2.1062805808870824, "lon": -155.71112807639275, "alt_km": 35766.871868730195, "timestamp": "2025-12-11T13:55:01.835712+00:00", "meta": {"OBJECT_NAME": "GALAXY 17 (G-17)", "OBJECT_ID": "2007-016B", "EPOCH": "2025-12-11T04:52:38.653824", "MEAN_MOTION": 1.00272515, "ECCENTRICITY": 0.00059347, "INCLINATION": 2.4965, "RA_OF_ASC_NODE": 82.3008, "ARG_OF_PERICENTER": 163.5412, "MEAN_ANOMALY": 182.4997, "EPHEMERIS_TYPE": 0, "CLASSIFICATION_TYPE": "U", "NORAD_CAT_ID": 31307, "ELEMENT_SET_NO": 999, "REV_AT_EPOCH": 6791, "BSTAR": 0, "MEAN_MOTION_DOT": -2e-06, "MEAN_MOTION_DDOT": 0}, "tle": {"line1": "1 31307U 07016B   25345.20322516 -.00000200  00000+0  00000+0 0  9999", "line2": "2 31307   2.4965  82.3008 0005934 163.5412 182.4997  1.00272515 67912"}}, "geometry": {"type": "Point", "coordinates": [-155.71112807639275, 2.1062805808870824]}}, {"type": "Feature", "properties": {"norad_id": 31862, "name": "DIRECTV 10", "group": "intelsat", "lat": -0.00031580241160121075, "lon": -173.4930906544284, "alt_km": 35784.7727093102, "timestamp": "2025-12-11T13:55:01.835725+00:00", "meta": {"OBJECT_NAME": "DIRECTV 10", "OBJECT_ID": "2007-032A", "EPOCH": "2025-12-10T23:19:34.847904", "MEAN_MOTION": 1.00271412, "ECCENTRICITY": 3.801e-05, "INCLINATION": 0.0021, "RA_OF_ASC_NODE": 247.4466, "ARG_OF_PERICENTER": 326.2855, "MEAN_ANOMALY": 113.3201, "EPHEMERIS_TYPE": 0, "CLASSIFICATION_TYPE": "U", "NORAD_CAT_ID": 31862, "ELEMENT_SET_NO": 999, "REV_AT_EPOCH": 4370, "BSTAR": 0, "MEAN_MOTION_DOT": -9.8e-07, "MEAN_MOTION_DDOT": 0}, "tle": {"line1": "1 31862U 07032A   25344.97193111 -.00000098  00000+0  00000+0 0  9998", "line2": "2 31862   0.0021 247.4466 0000380 326.2855 113.3201  1.00271412 43703"}}, "geometry": {"type": "Point", "coordinates": [-173.4930906544284, -0.00031580241160121075]}}, {"type": "Feature", "properties": {"norad_id": 32253, "name": "INTELSAT 11 (IS-11)", "group": "intelsat", "lat": 3.02237423599366, "lon": 159.96111595166607, "alt_km": 36129.76983025995, "timestamp": "2025-12-11T13:55:01.835736+00:00", "meta": {"OBJECT_NAME": "INTELSAT 11 (IS-11)", "OBJECT_ID": "2007-044B", "EPOCH": "2025-12-11T04:35:38.717376", "MEAN_MOTION": 0.99048278, "ECCENTRICITY": 0.00089795, "INCLINATION": 3.0765, "RA_OF_ASC_NODE": 80.9929, "ARG_OF_PERICENTER": 165.3171, "MEAN_ANOMALY": 135.252, "EPHEMERIS_TYPE": 0, "CLASSIFICATION_TYPE": "U", "NORAD_CAT_ID": 32253, "ELEMENT_SET_NO": 999, "REV_AT_EPOCH": 6658, "BSTAR": 0, "MEAN_MOTION_DOT": 8e-07, "MEAN_MOTION_DDOT": 0}, "tle": {"line1": "1 32253U 07044B   25345.19142034  .00000080  00000+0  00000+0 0  9999", "line2": "2 32253   3.0765  80.9929 0008979 165.3171 135.2520  0.99048278 66582"}}, "geometry": {"type": "Point", "coordinates": [159.96111595166607, 3.02237423599366]}}, {"type": "Feature", "properties": {"norad_id": 32388, "name": "HORIZONS-2", "group": "intelsat", "lat": 1.5474153220843856, "lon": -144.5244086494374, "alt_km": 35774.66869515334, "timestamp": "2025-12-11T13:55:01.835748+00:00", "meta": {"OBJECT_NAME": "HORIZONS-2", "OBJECT_ID": "2007-063B", "EPOCH": "2025-12-11T04:35:58.487424", "MEAN_MOTION": 1.00270171, "ECCENTRICITY": 0.00049542, "INCLINATION": 2.1178, "RA_OF_ASC_NODE": 82.9764, "ARG_OF_PERICENTER": 188.6576, "MEAN_ANOMALY": 163.7263, "EPHEMERIS_TYPE": 0, "CLASSIFICATION_TYPE": "U", "NORAD_CAT_ID": 32388, "ELEMENT_SET_NO": 999, "REV_AT_EPOCH": 6592, "BSTAR": 0, "MEAN_MOTION_DOT": -2.47e-06, "MEAN_MOTION_DDOT": 0}, "tle": {"line1": "1 32388U 07063B   25345.19164916 -.00000247  00000+0  00000+0 0  9998", "line2": "2 32388   2.1178  82.9764 0004954 188.6576 163.7263  1.00270171 65923"}}, "geometry": {"type": "Point", "coordinates": [-144.5244086494374, 1.5474153220843856]}}, {"type": "Feature", "properties": {"norad_id": 32729, "name": "DIRECTV 11", "group": "intelsat", "lat": -0.0053988601569204785, "lon": -169.9090546460884, "alt_km": 35784.70067370536, "timestamp": "2025-12-11T13:55:01.835759+00:00", "meta": {"OBJECT_NAME": "DIRECTV 11", "OBJECT_ID": "2008-013A", "EPOCH": "2025-12-10T19:55:09.427872", "MEAN_MOTION": 1.00269537, "ECCENTRICITY": 4.84e-05, "INCLINATION": 0.0266, "RA_OF_ASC_NODE": 165.676, "ARG_OF_PERICENTER": 20.8459, "MEAN_ANOMALY": 92.8714, "EPHEMERIS_TYPE": 0, "CLASSIFICATION_TYPE": "U", "NORAD_CAT_ID": 32729, "ELEMENT_SET_NO": 999, "REV_AT_EPOCH": 4370, "BSTAR": 0, "MEAN_MOTION_DOT": -1.2e-06, "MEAN_MOTION_DDOT": 0}, "tle": {"line1": "1 32729U 08013A   25344.82997023 -.00000120  00000+0  00000+0 0  9995", "line2": "2 32729   0.0266 165.6760 0000484  20.8459  92.8714  1.00269537 43702"}}, "geometry": {"type": "Point", "coordinates": [-169.9090546460884, -0.0053988601569204785]}}, {"type": "Feature", "properties": {"norad_id": 32951, "name": "GALAXY 18 (G-18)", "group": "intelsat", "lat": -0.01358229221994795, "lon": 166.25827912164007, "alt_km": 35787.43770920903, "timestamp": "2025-12-11T13:55:01.835771+00:00", "meta": {"OBJECT_NAME": "GALAXY 18 (G-18)", "OBJECT_ID": "2008-024A", "EPOCH": "2025-12-10T23:13:50.397888", "MEAN_MOTION": 1.00273115, "ECCENTRICITY": 0.00031095, "INCLINATION": 0.018, "RA_OF_ASC_NODE": 314.8239, "ARG_OF_PERICENTER": 309.1849, "MEAN_ANOMALY": 41.3852, "EPHEMERIS_TYPE": 0, "CLASSIFICATION_TYPE": "U", "NORAD_CAT_ID": 32951, "ELEMENT_SET_NO": 999, "REV_AT_EPOCH": 4396, "BSTAR": 0, "MEAN_MOTION_DOT": 3e-07, "MEAN_MOTION_DDOT": 0}, "tle": {"line1": "1 32951U 08024A   25344.96794442  .00000030  00000+0  00000+0 0  9998", "line2": "2 32951   0.0180 314.8239 0003109 309.1849  41.3852  1.00273115 43963"}}, "geometry": {"type": "Point", "coordinates": [166.25827912164007, -0.01358229221994795]}}]}